[{"OBJECT_NAME":"STARLINK-33611","OBJECT_ID":"2025-053Q","EPOCH":"2026-03-08T12:00:37.467360","MEAN_MOTION":15.27634247,"ECCENTRICITY":0.00015402,"INCLINATION":42.9988,"RA_OF_ASC_NODE":244.8488,"ARG_OF_PERICENTER":262.4035,"MEAN_ANOMALY":97.6642,"EPHEMERIS_TYPE":0,"CLASSIFICATION_TYPE":"U","NORAD_CAT_ID":63279,"ELEMENT_SET_NO":999,"REV_AT_EPOCH":5616,"BSTAR":0.0014419719,"MEAN_MOTION_DOT":0.00039698,"MEAN_MOTION_DDOT":0},{"OBJECT_NAME":"CZ-6A R\/B","OBJECT_ID":"2023-168B","EPOCH":"2026-03-09T21:13:08.722272","MEAN_MOTION":15.16100791,"ECCENTRICITY":0.00607667,"INCLINATION":97.7542,"RA_OF_ASC_NODE":104.7688,"ARG_OF_PERICENTER":339.2379,"MEAN_ANOMALY":20.6386,"EPHEMERIS_TYPE":0,"CLASSIFICATION_TYPE":"U","NORAD_CAT_ID":58200,"ELEMENT_SET_NO":999,"REV_AT_EPOCH":12979,"BSTAR":0.00029693841,"MEAN_MOTION_DOT":5.919e-5,"MEAN_MOTION_DDOT":0}]
